NORAD_CAT_ID,OBJECT_NAME,OBJECT_TYPE,EPOCH,MEAN_MOTION,ECCENTRICITY,INCLINATION,RA_OF_ASC_NODE,ARG_OF_PERICENTER,MEAN_ANOMALY,BSTAR,MEAN_MOTION_DOT,MEAN_MOTION_DDOT,TLE_LINE0,TLE_LINE1,TLE_LINE2,SEMIMAJOR_AXIS,PERIOD,APOGEE,PERIGEE,DECAYED
49756.0,STARLINK-3207,PAYLOAD,2023-02-26 17:58:55,15.08845496,0.0001366,53.2188,68.3652,84.9297,275.1851,6.2381e-05,7.05e-06,0.0,0 STARLINK-3207,1 49756U 21115AJ  23057.74924809  .00000705  00000-0  62381-4 0  9997,2 49756  53.2188  68.3652 0001366  84.9297 275.1851 15.08845496 69672,6917.864,95.437,540.674,538.784,0.0
49756.0,STARLINK-3207,PAYLOAD,2023-02-27 06:42:00,15.08840084,0.0001352,53.2177,65.9862,90.4074,269.7073,0.00019093,2.752e-05,0.0,0 STARLINK-3207,1 49756U 21115AJ  23058.27917343  .00002752  00000-0  19093-3 0  9996,2 49756  53.2177  65.9862 0001352  90.4074 269.7073 15.08840084 69758,6917.88,95.438,540.68,538.81,0.0
49756.0,STARLINK-3207,PAYLOAD,2023-02-27 09:52:46,15.08848478,0.0001409,53.2172,65.3909,87.0757,273.0397,0.00026902,3.997e-05,0.0,0 STARLINK-3207,1 49756U 21115AJ  23058.41164948  .00003997  00000-0  26902-3 0  9996,2 49756  53.2172  65.3909 0001409  87.0757 273.0397 15.08848478 68663,6917.854,95.437,540.694,538.745,0.0
49756.0,STARLINK-3207,PAYLOAD,2023-02-27 17:49:41,15.08856797,0.0001394,53.2178,63.9048,94.2164,265.8987,0.00032977,4.967e-05,0.0,0 STARLINK-3207,1 49756U 21115AJ  23058.74284481  .00004967  00000-0  32977-3 0  9994,2 49756  53.2178  63.9048 0001394  94.2164 265.8987 15.08856797 69828,6917.829,95.436,540.658,538.73,0.0
49756.0,STARLINK-3207,PAYLOAD,2023-02-28 11:18:55,15.08888368,0.0001452,53.2184,60.6333,104.6232,255.4921,0.0012618,0.00019877,0.0,0 STARLINK-3207,1 49756U 21115AJ  23059.47147223  .00019877  00000-0  12618-2 0  9992,2 49756  53.2184  60.6333 0001452 104.6232 255.4921 15.08888368 68824,6917.733,95.434,540.602,538.593,0.0
49756.0,STARLINK-3207,PAYLOAD,2023-02-28 17:40:26,15.08901158,0.0001541,53.2185,59.4444,106.1848,253.9314,0.001293,0.00020384,0.0,0 STARLINK-3207,1 49756U 21115AJ  23059.73642266  .00020384  00000-0  12930-2 0  9990,2 49756  53.2185  59.4444 0001541 106.1848 253.9314 15.08901158 68869,6917.693,95.434,540.624,538.492,0.0
49756.0,STARLINK-3207,PAYLOAD,2023-03-01 04:48:11,15.08803702,0.0001652,53.2185,57.3628,135.4088,224.7038,0.0011522,0.00018079,0.0,0 STARLINK-3207,1 49756U 21115AJ  23060.20013840  .00018079  00000-0  11522-2 0  9998,2 49756  53.2185  57.3628 0001652 135.4088 224.7038 15.08803702 70042,6917.991,95.44,540.999,538.713,0.0
49756.0,STARLINK-3207,PAYLOAD,2023-03-01 09:34:22,15.08794108,0.0001102,53.2187,56.4722,82.3622,277.7495,0.00091118,0.00014225,0.0,0 STARLINK-3207,1 49756U 21115AJ  23060.39886750  .00014225  00000-0  91118-3 0  9995,2 49756  53.2187  56.4722 0001102  82.3622 277.7495 15.08794108 70070,6918.021,95.44,540.648,539.123,0.0
49756.0,STARLINK-3207,PAYLOAD,2023-03-01 11:09:45,15.08806257,0.000108,53.2186,56.1728,86.2457,273.8659,0.00025466,3.764e-05,0.0,0 STARLINK-3207,1 49756U 21115AJ  23060.46510652  .00003764  00000-0  25466-3 0  9997,2 49756  53.2186  56.1728 0001080  86.2457 273.8659 15.08806257 68970,6917.984,95.44,540.596,539.101,0.0
49756.0,STARLINK-3207,PAYLOAD,2023-03-02 03:03:37,15.08847417,8.97e-05,53.2182,53.2005,84.0748,276.0347,0.0018399,0.00029121,0.0,0 STARLINK-3207,1 49756U 21115AJ  23061.12751302  .00029121  00000-0  18399-2 0  9991,2 49756  53.2182  53.2005 0000897  84.0748 276.0347 15.08847417 70184,6917.858,95.437,540.343,539.102,0.0
49756.0,STARLINK-3207,PAYLOAD,2023-03-02 15:46:41,15.0885981,0.0001954,53.2193,50.8214,102.4862,257.6349,0.0008834,0.00013807,0.0,0 STARLINK-3207,1 49756U 21115AJ  23061.65742996  .00013807  00000-0  88340-3 0  9996,2 49756  53.2193  50.8214 0001954 102.4862 257.6349 15.08859810 69150,6917.82,95.436,541.037,538.333,0.0
49756.0,STARLINK-3207,PAYLOAD,2023-03-03 09:15:54,15.08907627,9.56e-05,53.2183,47.5508,95.0758,265.0344,0.0026201,0.00041735,0.0,0 STARLINK-3207,1 49756U 21115AJ  23062.38604825  .00041735  00000-0  26201-2 0  9993,2 49756  53.2183  47.5508 0000956  95.0758 265.0344 15.08907627 70374,6917.674,95.433,540.2,538.877,0.0
49756.0,STARLINK-3207,PAYLOAD,2023-03-03 10:51:17,15.08913328,9.64e-05,53.2184,47.2529,96.7914,263.3188,0.0026759,0.00042643,0.0,0 STARLINK-3207,1 49756U 21115AJ  23062.45228528  .00042643  00000-0  26759-2 0  9990,2 49756  53.2184  47.2529 0000964  96.7914 263.3188 15.08913328 69275,6917.656,95.433,540.188,538.854,0.0
49756.0,STARLINK-3207,PAYLOAD,2023-03-03 15:37:27,15.0886136,0.0002636,53.2178,46.3599,69.7265,290.401,0.0011326,0.00017794,0.0,0 STARLINK-3207,1 49756U 21115AJ  23062.65101510  .00017794  00000-0  11326-2 0  9996,2 49756  53.2178  46.3599 0002636  69.7265 290.4010 15.08861360 70413,6917.815,95.436,541.504,537.857,0.0
49756.0,STARLINK-3207,PAYLOAD,2023-03-04 04:20:32,15.08864672,0.000125,53.2187,43.982,81.6712,278.4422,0.0019096,0.00030255,0.0,0 STARLINK-3207,1 49756U 21115AJ  23063.18092661  .00030255  00000-0  19096-2 0  9990,2 49756  53.2187  43.9820 0001250  81.6712 278.4422 15.08864672 70494,6917.805,95.436,540.535,538.805,0.0
49756.0,STARLINK-3207,PAYLOAD,2023-03-04 09:06:41,15.088756,0.000127,53.2186,43.0895,80.023,280.0905,0.0025702,0.00040894,0.0,0 STARLINK-3207,1 49756U 21115AJ  23063.37964313  .00040894  00000-0  25702-2 0  9994,2 49756  53.2186  43.0895 0001270  80.0230 280.0905 15.08875600 69414,6917.772,95.435,540.515,538.758,0.0
49756.0,STARLINK-3207,PAYLOAD,2023-03-04 21:49:46,15.08842808,0.0001455,53.2185,40.7111,114.2455,245.8689,0.0010416,0.00016329,0.0,0 STARLINK-3207,1 49756U 21115AJ  23063.90956869  .00016329  00000-0  10416-2 0  9992,2 49756  53.2185  40.7111 0001455 114.2455 245.8689 15.08842808 70607,6917.872,95.437,540.743,538.73,0.0
49756.0,STARLINK-3207,PAYLOAD,2023-03-05 05:46:42,15.08849573,0.0001347,53.2188,39.2241,104.5206,255.5935,0.0020861,0.00033077,0.0,0 STARLINK-3207,1 49756U 21115AJ  23064.24077126  .00033077  00000-0  20861-2 0  9994,2 49756  53.2188  39.2241 0001347 104.5206 255.5935 15.08849573 69542,6917.851,95.437,540.648,538.784,0.0
49756.0,STARLINK-3207,PAYLOAD,2023-03-06 05:37:29,15.08870918,0.0001514,53.2194,34.7648,80.4396,279.6768,0.0016097,0.00025445,0.0,0 STARLINK-3207,1 49756U 21115AJ  23065.23436739  .00025445  00000-0  16097-2 0  9999,2 49756  53.2194  34.7648 0001514  80.4396 279.6768 15.08870918 70807,6917.786,95.436,540.698,538.604,0.0
49756.0,STARLINK-3207,PAYLOAD,2023-03-06 10:23:37,15.08892963,0.000123,53.2192,33.8684,102.5573,257.5557,0.0019963,0.00031672,0.0,0 STARLINK-3207,1 49756U 21115AJ  23065.43307785  .00031672  00000-0  19963-2 0  9993,2 49756  53.2192  33.8684 0001230 102.5573 257.5557 15.08892963 70831,6917.719,95.434,540.434,538.733,0.0
49756.0,STARLINK-3207,PAYLOAD,2023-03-06 21:31:21,15.08814136,0.0001394,53.2198,31.7921,57.3214,302.7912,-0.00022989,-3.942e-05,0.0,0 STARLINK-3207,1 49756U 21115AJ  23065.89677551 -.00003942  00000-0 -22989-3 0  9998,2 49756  53.2198  31.7921 0001394  57.3214 302.7912 15.08814136 69795,6917.959,95.439,540.789,538.86,0.0
49756.0,STARLINK-3207,PAYLOAD,2023-03-07 03:52:54,15.08832453,0.0001648,53.2185,30.6013,94.3035,265.8145,0.0017719,0.00028019,0.0,0 STARLINK-3207,1 49756U 21115AJ  23066.16173613  .00028019  00000-0  17719-2 0  9993,2 49756  53.2185  30.6013 0001648  94.3035 265.8145 15.08832453 70943,6917.903,95.438,540.909,538.628,0.0
49756.0,STARLINK-3207,PAYLOAD,2023-03-07 07:03:40,15.08847238,0.0001686,53.218,30.0059,87.4973,272.6212,0.0027452,0.00043682,0.0,0 STARLINK-3207,1 49756U 21115AJ  23066.29421576  .00043682  00000-0  27452-2 0  9999,2 49756  53.2180  30.0059 0001686  87.4973 272.6212 15.08847238 70968,6917.858,95.437,540.89,538.557,0.0
49756.0,STARLINK-3207,PAYLOAD,2023-03-07 21:22:08,15.08845027,0.0001099,53.2187,27.3288,76.1404,283.971,0.0014038,0.00022127,0.0,0 STARLINK-3207,1 49756U 21115AJ  23066.89038037  .00022127  00000-0  14038-2 0  9998,2 49756  53.2187  27.3288 0001099  76.1404 283.9710 15.08845027 71053,6917.865,95.437,540.49,538.97,0.0
49756.0,STARLINK-3207,PAYLOAD,2023-03-08 06:54:27,15.08870331,0.0001524,53.2194,25.5446,98.5511,261.5654,0.0021838,0.00034667,0.0,0 STARLINK-3207,1 49756U 21115AJ  23067.28781597  .00034667  00000-0  21838-2 0  9996,2 49756  53.2194  25.5446 0001524  98.5511 261.5654 15.08870331 71119,6917.788,95.436,540.707,538.598,0.0
49756.0,STARLINK-3207,PAYLOAD,2023-03-08 21:12:56,15.08870084,0.000233,53.2188,22.8695,94.3557,265.7701,0.0026936,0.00042878,0.0,0 STARLINK-3207,1 49756U 21115AJ  23067.88398233  .00042878  00000-0  26936-2 0  9990,2 49756  53.2188  22.8695 0002330  94.3557 265.7701 15.08870084 70098,6917.788,95.436,541.265,538.042,0.0
49756.0,STARLINK-3207,PAYLOAD,2023-03-09 00:23:42,15.08859295,0.0001811,53.2189,22.2735,113.4007,246.7176,0.0022701,0.00036045,0.0,0 STARLINK-3207,1 49756U 21115AJ  23068.01646137  .00036045  00000-0  22701-2 0  9990,2 49756  53.2189  22.2735 0001811 113.4007 246.7176 15.08859295 71226,6917.821,95.436,540.939,538.434,0.0
49756.0,STARLINK-3207,PAYLOAD,2023-03-09 21:03:42,15.0886943,0.000161,53.2198,18.4098,80.8109,279.3065,0.0020357,0.00032285,0.0,0 STARLINK-3207,1 49756U 21115AJ  23068.87758067  .00032285  00000-0  20357-2 0  9997,2 49756  53.2198  18.4098 0001610  80.8109 279.3065 15.08869430 70244,6917.79,95.436,540.769,538.542,0.0
49756.0,STARLINK-3207,PAYLOAD,2023-03-10 03:25:14,15.08882709,0.0001542,53.2198,17.2201,75.9797,284.1366,0.002009,0.00031868,0.0,0 STARLINK-3207,1 49756U 21115AJ  23069.14253465  .00031868  00000-0  20090-2 0  9990,2 49756  53.2198  17.2201 0001542  75.9797 284.1366 15.08882709 71398,6917.75,95.435,540.682,538.548,0.0
49756.0,STARLINK-3207,PAYLOAD,2023-03-10 12:57:33,15.08868942,0.0001847,53.22,15.4365,47.3097,312.805,0.0011795,0.00018548,0.0,0 STARLINK-3207,1 49756U 21115AJ  23069.53997223  .00018548  00000-0  11795-2 0  9992,2 49756  53.2200  15.4365 0001847  47.3097 312.8050 15.08868942 71456,6917.792,95.436,540.935,538.379,0.0
